{
  "type": "FeatureCollection",
  "features": [
    {
      "type": "Feature",
      "properties": {
        "norad_id": 31937,
        "name": "FENGYUN 1C DEB",
        "group": "fengyun-1c-debris",
        "lat": 80.68272401053275,
        "lon": -9.142961129598868,
        "alt_km": 722.6939406379915,
        "timestamp": "2025-12-11T05:00:26.593538+00:00",
        "meta_object_name": "FENGYUN 1C DEB",
        "meta_object_id": "1999-025CMN",
        "meta_epoch": "2025-12-06T23:52:27.149088",
        "meta_mean_motion": 14.78022374,
        "meta_eccentricity": 0.0162921,
        "meta_inclination": 99.2561,
        "meta_ra_of_asc_node": 69.7316,
        "meta_arg_of_pericenter": 315.3928,
        "meta_mean_anomaly": 43.4262,
        "meta_ephemeris_type": 0,
        "meta_classification_type": "U",
        "meta_norad_cat_id": 31937,
        "meta_element_set_no": 999,
        "meta_rev_at_epoch": 65984,
        "meta_bstar": 0.0011794166,
        "meta_mean_motion_dot": 0.00010567,
        "meta_mean_motion_ddot": 0,
        "tle_line1": "1 31937U 99025CMN 25340.99475867  .00010567  00000+0  11794-2 0  9999",
        "tle_line2": "2 31937  99.2561  69.7316 0162921 315.3928  43.4262 14.78022374659842"
      },
      "geometry": {
        "type": "Point",
        "coordinates": [
          -9.142961129598868,
          80.68272401053275
        ]
      }
    },
    {
      "type": "Feature",
      "properties": {
        "norad_id": 31938,
        "name": "FENGYUN 1C DEB",
        "group": "fengyun-1c-debris",
        "lat": -56.33850429126446,
        "lon": 30.084261215944945,
        "alt_km": 652.6921153952862,
        "timestamp": "2025-12-11T05:00:26.593548+00:00",
        "meta_object_name": "FENGYUN 1C DEB",
        "meta_object_id": "1999-025CMP",
        "meta_epoch": "2025-12-10T19:37:50.744352",
        "meta_mean_motion": 14.95574761,
        "meta_eccentricity": 0.01528161,
        "meta_inclination": 98.9295,
        "meta_ra_of_asc_node": 15.9828,
        "meta_arg_of_pericenter": 72.3338,
        "meta_mean_anomaly": 289.4498,
        "meta_ephemeris_type": 0,
        "meta_classification_type": "U",
        "meta_norad_cat_id": 31938,
        "meta_element_set_no": 999,
        "meta_rev_at_epoch": 99107,
        "meta_bstar": 0.00060388207,
        "meta_mean_motion_dot": 8.401e-05,
        "meta_mean_motion_ddot": 0,
        "tle_line1": "1 31938U 99025CMP 25344.81794843  .00008401  00000+0  60388-3 0  9991",
        "tle_line2": "2 31938  98.9295  15.9828 0152816  72.3338 289.4498 14.95574761991079"
      },
      "geometry": {
        "type": "Point",
        "coordinates": [
          30.084261215944945,
          -56.33850429126446
        ]
      }
    },
    {
      "type": "Feature",
      "properties": {
        "norad_id": 31944,
        "name": "FENGYUN 1C DEB",
        "group": "fengyun-1c-debris",
        "lat": -80.69859467355519,
        "lon": -145.4936905967335,
        "alt_km": 872.9506823254915,
        "timestamp": "2025-12-11T05:00:26.593558+00:00",
        "meta_object_name": "FENGYUN 1C DEB",
        "meta_object_id": "1999-025CMV",
        "meta_epoch": "2025-12-05T05:25:34.154400",
        "meta_mean_motion": 14.11765981,
        "meta_eccentricity": 0.01519652,
        "meta_inclination": 99.203,
        "meta_ra_of_asc_node": 126.5353,
        "meta_arg_of_pericenter": 25.3933,
        "meta_mean_anomaly": 98.7212,
        "meta_ephemeris_type": 0,
        "meta_classification_type": "U",
        "meta_norad_cat_id": 31944,
        "meta_element_set_no": 999,
        "meta_rev_at_epoch": 62804,
        "meta_bstar": 0.00085144569,
        "meta_mean_motion_dot": 1.684e-05,
        "meta_mean_motion_ddot": 0,
        "tle_line1": "1 31944U 99025CMV 25339.22608975  .00001684  00000+0  85145-3 0  9991",
        "tle_line2": "2 31944  99.2030 126.5353 0151965  25.3933  98.7212 14.11765981628045"
      },
      "geometry": {
        "type": "Point",
        "coordinates": [
          -145.4936905967335,
          -80.69859467355519
        ]
      }
    },
    {
      "type": "Feature",
      "properties": {
        "norad_id": 31945,
        "name": "FENGYUN 1C DEB",
        "group": "fengyun-1c-debris",
        "lat": -29.641678073802147,
        "lon": -123.62704017314744,
        "alt_km": 822.0147191818078,
        "timestamp": "2025-12-11T05:00:26.593568+00:00",
        "meta_object_name": "FENGYUN 1C DEB",
        "meta_object_id": "1999-025CMW",
        "meta_epoch": "2025-12-10T16:11:05.944704",
        "meta_mean_motion": 14.20780809,
        "meta_eccentricity": 0.00607536,
        "meta_inclination": 98.9621,
        "meta_ra_of_asc_node": 60.9834,
        "meta_arg_of_pericenter": 293.2116,
        "meta_mean_anomaly": 66.2669,
        "meta_ephemeris_type": 0,
        "meta_classification_type": "U",
        "meta_norad_cat_id": 31945,
        "meta_element_set_no": 999,
        "meta_rev_at_epoch": 95166,
        "meta_bstar": 0.0021439284,
        "meta_mean_motion_dot": 4.671e-05,
        "meta_mean_motion_ddot": 0,
        "tle_line1": "1 31945U 99025CMW 25344.67437436  .00004671  00000+0  21439-2 0  9993",
        "tle_line2": "2 31945  98.9621  60.9834 0060753 293.2116  66.2669 14.20780809951665"
      },
      "geometry": {
        "type": "Point",
        "coordinates": [
          -123.62704017314744,
          -29.641678073802147
        ]
      }
    },
    {
      "type": "Feature",
      "properties": {
        "norad_id": 31946,
        "name": "FENGYUN 1C DEB",
        "group": "fengyun-1c-debris",
        "lat": 68.02642200581336,
        "lon": -111.72029066152515,
        "alt_km": 797.0710608055642,
        "timestamp": "2025-12-11T05:00:26.593578+00:00",
        "meta_object_name": "FENGYUN 1C DEB",
        "meta_object_id": "1999-025CMX",
        "meta_epoch": "2025-12-10T21:42:54.519552",
        "meta_mean_motion": 14.16418579,
        "meta_eccentricity": 0.00824549,
        "meta_inclination": 98.8975,
        "meta_ra_of_asc_node": 45.1311,
        "meta_arg_of_pericenter": 55.1709,
        "meta_mean_anomaly": 305.7186,
        "meta_ephemeris_type": 0,
        "meta_classification_type": "U",
        "meta_norad_cat_id": 31946,
        "meta_element_set_no": 999,
        "meta_rev_at_epoch": 63982,
        "meta_bstar": 0.0017789515,
        "meta_mean_motion_dot": 3.612e-05,
        "meta_mean_motion_ddot": 0,
        "tle_line1": "1 31946U 99025CMX 25344.90479768  .00003612  00000+0  17790-2 0  9993",
        "tle_line2": "2 31946  98.8975  45.1311 0082454  55.1709 305.7186 14.16418579639820"
      },
      "geometry": {
        "type": "Point",
        "coordinates": [
          -111.72029066152515,
          68.02642200581336
        ]
      }
    },
    {
      "type": "Feature",
      "properties": {
        "norad_id": 31948,
        "name": "FENGYUN 1C DEB",
        "group": "fengyun-1c-debris",
        "lat": 65.09584374915809,
        "lon": 24.63706432845905,
        "alt_km": 777.8347495005046,
        "timestamp": "2025-12-11T05:00:26.593588+00:00",
        "meta_object_name": "FENGYUN 1C DEB",
        "meta_object_id": "1999-025CMZ",
        "meta_epoch": "2025-12-08T09:44:13.179840",
        "meta_mean_motion": 14.28248279,
        "meta_eccentricity": 0.00237817,
        "meta_inclination": 99.3918,
        "meta_ra_of_asc_node": 42.5089,
        "meta_arg_of_pericenter": 35.7447,
        "meta_mean_anomaly": 26.9919,
        "meta_ephemeris_type": 0,
        "meta_classification_type": "U",
        "meta_norad_cat_id": 31948,
        "meta_element_set_no": 999,
        "meta_rev_at_epoch": 94966,
        "meta_bstar": 0.0021945448,
        "meta_mean_motion_dot": 5.441e-05,
        "meta_mean_motion_ddot": 0,
        "tle_line1": "1 31948U 99025CMZ 25342.40570810  .00005441  00000+0  21945-2 0  9997",
        "tle_line2": "2 31948  99.3918  42.5089 0023781  35.7447  26.9919 14.28248279949662"
      },
      "geometry": {
        "type": "Point",
        "coordinates": [
          24.63706432845905,
          65.09584374915809
        ]
      }
    },
    {
      "type": "Feature",
      "properties": {
        "norad_id": 31949,
        "name": "FENGYUN 1C DEB",
        "group": "fengyun-1c-debris",
        "lat": -47.36139042180186,
        "lon": -19.83705689699579,
        "alt_km": 849.0131326423134,
        "timestamp": "2025-12-11T05:00:26.593599+00:00",
        "meta_object_name": "FENGYUN 1C DEB",
        "meta_object_id": "1999-025CNA",
        "meta_epoch": "2025-11-23T05:03:27.897984",
        "meta_mean_motion": 14.1687356,
        "meta_eccentricity": 0.01252295,
        "meta_inclination": 98.5419,
        "meta_ra_of_asc_node": 313.4803,
        "meta_arg_of_pericenter": 269.0533,
        "meta_mean_anomaly": 89.6292,
        "meta_ephemeris_type": 0,
        "meta_classification_type": "U",
        "meta_norad_cat_id": 31949,
        "meta_element_set_no": 999,
        "meta_rev_at_epoch": 95228,
        "meta_bstar": 0.00041514195,
        "meta_mean_motion_dot": 8.56e-06,
        "meta_mean_motion_ddot": 0,
        "tle_line1": "1 31949U 99025CNA 25327.21073956  .00000856  00000+0  41514-3 0  9999",
        "tle_line2": "2 31949  98.5419 313.4803 0125229 269.0533  89.6292 14.16873560952288"
      },
      "geometry": {
        "type": "Point",
        "coordinates": [
          -19.83705689699579,
          -47.36139042180186
        ]
      }
    }
  ]
}